              M50 Cartesian                         M50 Keplerian  
    -----------------------------------       --------------------------------
     X    =        3326107.89                 A    =         6778363.63  meter
     Y    =       -3209768.17  meter          E    =           .0013883
     Z    =       -4970713.26                 I    =           51.98997
     XDOT =       3085.618280                 Wp   =           64.52891
     YDOT =       6645.830470  meter/sec      RA   =           78.82886  deg
     ZDOT =      -2225.769804                 TA   =          183.81831
                                              MA   =          183.82892
                                              Ha   =            221.113  n.mi
                                              Hp   =            214.146
 
              M50 Cartesian                         J2K Cartesian  
    -----------------------------------       --------------------------------
     X    =       10912427.46                 X    =         3385898.68
     Y    =      -10530735.48  feet           Y    =        -3172239.56  meter
     Z    =      -16308114.37                 Z    =        -4954410.37
     XDOT =      10123.419554                 XDOT =        3021.885442
     YDOT =      21803.905740  feet/sec       YDOT =        6679.979355  meter/sec
     ZDOT =      -7302.394370                 ZDOT =       -2210.936048
 
              TDR Cartesian                         TDR Cartesian  
    -----------------------------------       --------------------------------
     X    =       -7461748.83                 X    =        -2274341.04
     Y    =      -13290031.95  feet           Y    =        -4050801.74  meter
     Z    =      -16236668.76                 Z    =        -4948936.64
     XDOT =      22678.267025                 XDOT =        6912.335789
     YDOT =      -3884.766777  feet/sec       YDOT =       -1184.076914  meter/sec
     ZDOT =      -7239.111666                 ZDOT =       -2206.481236
  
  
    The mean element set is posted at the UTC for which position is
    just north of the next ascending node relative to the above
    vector time
 
 
    TWO LINE MEAN ELEMENT SET
  
    ISS
    1 25544U 98067A   16092.70325827  .00016717  00000-0  10270-3 0  9043
    2 25544  51.6422  79.5083 0002610  15.3326 344.7906 15.54337099 33086
  
  
    Satellite: ISS
    Catalog Number: 25544
    Epoch time:      16092.70325827   =   yrday.fracday
    Element set:     904
    Inclination:       51.6422  deg
    RA of node:        79.5083  deg
    Eccentricity:     .0002610     
    Arg of perigee:    15.3326  deg
    Mean anomaly:     344.7906  deg
    Mean motion:   15.54337099  rev/day
    Decay rate:    1.67170E-04  rev/day^2
    Epoch rev:            3308
    Checksum:              303
 
 
    Coasting Arc #6 (Orbit 3323)
    ---------------------------------------
 
    Vector Time (GMT): 2016/093/16:23:58.000
    Vector Time (MET): N/A
    Weight (LBS)     : 907109.6
 
              M50 Cartesian                         M50 Keplerian  
    -----------------------------------       --------------------------------
     X    =       -3926786.80                 A    =         6776653.20  meter
     Y    =        1429033.08  meter          E    =           .0003713
     Z    =        5332148.77                 I    =           51.97751
     XDOT =      -2320.665849                 Wp   =           57.27786
     YDOT =      -7308.125936  meter/sec      RA   =           73.85203  deg
     ZDOT =        251.407263                 TA   =           30.34877
                                              MA   =           30.32728
                                              Ha   =            221.202  n.mi
                                              Hp   =            213.984
 
              M50 Cartesian                         J2K Cartesian  
    -----------------------------------       --------------------------------
     X    =      -12883158.80                 X    =        -3968375.99
     Y    =        4688428.74  feet           Y    =         1384889.13  meter
     Z    =       17493926.41                 Z    =         5312972.31
     XDOT =      -7613.733101                 XDOT =       -2239.993315
     YDOT =     -23976.791128  feet/sec       YDOT =       -7333.626072  meter/sec
     ZDOT =        824.826978                 ZDOT =         240.330744
 
              TDR Cartesian                         TDR Cartesian  
    -----------------------------------       --------------------------------
     X    =        1547494.11                 X    =          471676.21
     Y    =       13728840.78  feet           Y    =         4184550.67  meter
     Z    =       17410307.26                 Z    =         5306661.65
     XDOT =     -24088.939535                 XDOT =       -7342.308770
     YDOT =       1736.279030  feet/sec       YDOT =         529.217848  meter/sec
     ZDOT =        778.005350                 ZDOT =         237.136031
  
  
    The mean element set is posted at the UTC for which position is
    just north of the next ascending node relative to the above
    vector time
 
 
    TWO LINE MEAN ELEMENT SET
  
    ISS
    1 25544U 98067A   16093.73195699  .00016717  00000-0  10270-3 0  9050
    2 25544  51.6422  74.3791 0002570  15.6974 344.4258 15.54372040 33242
  
  
    Satellite: ISS
    Catalog Number: 25544
    Epoch time:      16093.73195699   =   yrday.fracday
    Element set:     905
    Inclination:       51.6422  deg
    RA of node:        74.3791  deg
    Eccentricity:     .0002570     
    Arg of perigee:    15.6974  deg
    Mean anomaly:     344.4258  deg
    Mean motion:   15.54372040  rev/day
    Decay rate:    1.67170E-04  rev/day^2
    Epoch rev:            3324
    Checksum:              316
 
 
    Coasting Arc #7 (Orbit 3324)
    ---------------------------------------
 
    Vector Time (GMT): 2016/093/17:58:46.000
    Vector Time (MET): N/A
    Weight (LBS)     : 922235.5
 
              M50 Cartesian                         M50 Keplerian  
    -----------------------------------       --------------------------------
     X    =       -4187418.16                 A    =         6776774.97  meter
     Y    =         467599.06  meter          E    =           .0005065
     Z    =        5305163.04                 I    =           51.97875
     XDOT =      -1670.791154                 Wp   =           41.42761
     YDOT =      -7458.509561  meter/sec      RA   =           73.51800  deg
     ZDOT =       -657.320388                 TA   =           54.84020
                                              MA   =           54.79276
                                              Ha   =            221.189  n.mi
                                              Hp   =            213.990
 
              M50 Cartesian                         J2K Cartesian  
    -----------------------------------       --------------------------------
     X    =      -13738248.57                 X    =        -4218105.90
     Y    =        1534117.65  feet           Y    =          420601.51  meter
     Z    =       17405390.56                 Z    =         5284747.08
     XDOT =      -5481.598273                 XDOT =       -1584.071094
     YDOT =     -24470.175724  feet/sec       YDOT =       -7476.708644  meter/sec
     ZDOT =      -2156.562953                 ZDOT =        -665.225275
 
              TDR Cartesian                         TDR Cartesian  
    -----------------------------------       --------------------------------
     X    =        3999354.37                 X    =         1219003.21
     Y    =       13348505.49  feet           Y    =         4068624.47  meter
     Z    =       17316557.89                 Z    =         5278086.84
     XDOT =     -22116.214218                 XDOT =       -6741.022094
     YDOT =       9484.057825  feet/sec       YDOT =        2890.740825  meter/sec
     ZDOT =      -2189.569630                 ZDOT =        -667.380823
  
  
    The mean element set is posted at the UTC for which position is
    just north of the next ascending node relative to the above
    vector time
 
 
    TWO LINE MEAN ELEMENT SET
  
    ISS
    1 25544U 98067A   16093.79624995  .00016717  00000-0  10270-3 0  9063
    2 25544  51.6436  74.0588 0002559  15.2130 344.9099 15.54374941 33256
  
  
    Satellite: ISS
    Catalog Number: 25544
    Epoch time:      16093.79624995   =   yrday.fracday
    Element set:     906
    Inclination:       51.6436  deg
    RA of node:        74.0588  deg
    Eccentricity:     .0002559     
    Arg of perigee:    15.2130  deg
    Mean anomaly:     344.9099  deg
    Mean motion:   15.54374941  rev/day
    Decay rate:    1.67170E-04  rev/day^2
    Epoch rev:            3325
    Checksum:              333
 
 
    Coasting Arc #8 (Orbit 3339)
    ---------------------------------------
 
    Vector Time (GMT): 2016/094/17:58:46.000
    Vector Time (MET): N/A
    Weight (LBS)     : 922235.5
 
              M50 Cartesian                         M50 Keplerian  
    -----------------------------------       --------------------------------
     X    =        4580166.50                 A    =         6778927.04  meter
     Y    =        1335283.81  meter          E    =           .0011724
     Z    =       -4826394.14                 I    =           51.97497
     XDOT =        639.362843                 Wp   =           95.22298
     YDOT =       7177.611360  meter/sec      RA   =           68.54130  deg
     ZDOT =       2596.897180                 TA   =          200.24593
                                              MA   =          200.29246
                                              Ha   =            221.175  n.mi
                                              Hp   =            214.067
 
